{"type": "FeatureCollection", "features": [{"type": "Feature", "properties": {"norad_id": 28890, "name": "BEIJING 1", "group": "dmc", "lat": -71.44308972010428, "lon": -92.36411000105834, "alt_km": 693.1626959874529, "timestamp": "2025-12-11T18:59:45.733255+00:00", "meta": {"OBJECT_NAME": "BEIJING 1", "OBJECT_ID": "2005-043A", "EPOCH": "2025-12-11T07:59:49.172064", "MEAN_MOTION": 14.63364175, "ECCENTRICITY": 0.00152254, "INCLINATION": 98.2656, "RA_OF_ASC_NODE": 112.8365, "ARG_OF_PERICENTER": 145.3745, "MEAN_ANOMALY": 214.8451, "EPHEMERIS_TYPE": 0, "CLASSIFICATION_TYPE": "U", "NORAD_CAT_ID": 28890, "ELEMENT_SET_NO": 999, "REV_AT_EPOCH": 7317, "BSTAR": 0.00014716213, "MEAN_MOTION_DOT": 7.13e-06, "MEAN_MOTION_DDOT": 0}, "tle": {"line1": "1 28890U 05043A   25345.33320801  .00000713  00000+0  14716-3 0  9990", "line2": "2 28890  98.2656 112.8365 0015225 145.3745 214.8451 14.63364175 73178"}}, "geometry": {"type": "Point", "coordinates": [-92.36411000105834, -71.44308972010428]}}, {"type": "Feature", "properties": {"norad_id": 33320, "name": "HUANJING 1A (HJ-1A)", "group": "dmc", "lat": -32.097456888602494, "lon": 149.29059604808103, "alt_km": 638.9257439293269, "timestamp": "2025-12-11T18:59:45.733293+00:00", "meta": {"OBJECT_NAME": "HUANJING 1A (HJ-1A)", "OBJECT_ID": "2008-041A", "EPOCH": "2025-12-11T06:42:36.715104", "MEAN_MOTION": 14.8338928, "ECCENTRICITY": 0.00203255, "INCLINATION": 97.6547, "RA_OF_ASC_NODE": 333.6391, "ARG_OF_PERICENTER": 39.0871, "MEAN_ANOMALY": 321.1808, "EPHEMERIS_TYPE": 0, "CLASSIFICATION_TYPE": "U", "NORAD_CAT_ID": 33320, "ELEMENT_SET_NO": 999, "REV_AT_EPOCH": 93054, "BSTAR": 0.00039339924, "MEAN_MOTION_DOT": 3.188e-05, "MEAN_MOTION_DDOT": 0}, "tle": {"line1": "1 33320U 08041A   25345.27959161  .00003188  00000+0  39340-3 0  9994", "line2": "2 33320  97.6547 333.6391 0020325  39.0871 321.1808 14.83389280930549"}}, "geometry": {"type": "Point", "coordinates": [149.29059604808103, -32.097456888602494]}}, {"type": "Feature", "properties": {"norad_id": 33321, "name": "HUANJING 1B (HJ-1B)", "group": "dmc", "lat": 73.46090138247985, "lon": -49.0454976023222, "alt_km": 586.6727992319047, "timestamp": "2025-12-11T18:59:45.733309+00:00", "meta": {"OBJECT_NAME": "HUANJING 1B (HJ-1B)", "OBJECT_ID": "2008-041B", "EPOCH": "2025-12-11T05:42:11.814336", "MEAN_MOTION": 14.82814688, "ECCENTRICITY": 0.00382714, "INCLINATION": 97.6403, "RA_OF_ASC_NODE": 337.2996, "ARG_OF_PERICENTER": 80.3328, "MEAN_ANOMALY": 280.2206, "EPHEMERIS_TYPE": 0, "CLASSIFICATION_TYPE": "U", "NORAD_CAT_ID": 33321, "ELEMENT_SET_NO": 999, "REV_AT_EPOCH": 93055, "BSTAR": 0.00023348912, "MEAN_MOTION_DOT": 1.862e-05, "MEAN_MOTION_DDOT": 0}, "tle": {"line1": "1 33321U 08041B   25345.23763674  .00001862  00000+0  23349-3 0  9992", "line2": "2 33321  97.6403 337.2996 0038271  80.3328 280.2206 14.82814688930559"}}, "geometry": {"type": "Point", "coordinates": [-49.0454976023222, 73.46090138247985]}}, {"type": "Feature", "properties": {"norad_id": 33446, "name": "YAOGAN-4", "group": "dmc", "lat": -12.521266603328968, "lon": -82.32872764213833, "alt_km": 616.4127295940671, "timestamp": "2025-12-11T18:59:45.733321+00:00", "meta": {"OBJECT_NAME": "YAOGAN-4", "OBJECT_ID": "2008-061A", "EPOCH": "2025-12-11T06:05:43.265472", "MEAN_MOTION": 14.82675923, "ECCENTRICITY": 0.00136886, "INCLINATION": 97.918, "RA_OF_ASC_NODE": 275.3679, "ARG_OF_PERICENTER": 328.5714, "MEAN_ANOMALY": 31.4681, "EPHEMERIS_TYPE": 0, "CLASSIFICATION_TYPE": "U", "NORAD_CAT_ID": 33446, "ELEMENT_SET_NO": 999, "REV_AT_EPOCH": 91781, "BSTAR": 0.00032167115, "MEAN_MOTION_DOT": 2.544e-05, "MEAN_MOTION_DDOT": 0}, "tle": {"line1": "1 33446U 08061A   25345.25397298  .00002544  00000+0  32167-3 0  9995", "line2": "2 33446  97.9180 275.3679 0013688 328.5714  31.4681 14.82675923917817"}}, "geometry": {"type": "Point", "coordinates": [-82.32872764213833, -12.521266603328968]}}, {"type": "Feature", "properties": {"norad_id": 35681, "name": "DEIMOS-1", "group": "dmc", "lat": 35.896917163798086, "lon": -27.930436626445385, "alt_km": 642.0050873149949, "timestamp": "2025-12-11T18:59:45.733333+00:00", "meta": {"OBJECT_NAME": "DEIMOS-1", "OBJECT_ID": "2009-041A", "EPOCH": "2025-12-11T06:57:00.348768", "MEAN_MOTION": 14.74949272, "ECCENTRICITY": 0.00027688, "INCLINATION": 97.7151, "RA_OF_ASC_NODE": 145.9602, "ARG_OF_PERICENTER": 81.5121, "MEAN_ANOMALY": 278.6403, "EPHEMERIS_TYPE": 0, "CLASSIFICATION_TYPE": "U", "NORAD_CAT_ID": 35681, "ELEMENT_SET_NO": 999, "REV_AT_EPOCH": 87918, "BSTAR": 0.00019503998, "MEAN_MOTION_DOT": 1.263e-05, "MEAN_MOTION_DDOT": 0}, "tle": {"line1": "1 35681U 09041A   25345.28958737  .00001263  00000+0  19504-3 0  9998", "line2": "2 35681  97.7151 145.9602 0002768  81.5121 278.6403 14.74949272879185"}}, "geometry": {"type": "Point", "coordinates": [-27.930436626445385, 35.896917163798086]}}, {"type": "Feature", "properties": {"norad_id": 35683, "name": "UK-DMC 2", "group": "dmc", "lat": 23.266027969716045, "lon": -55.875943366047416, "alt_km": 642.2706791492501, "timestamp": "2025-12-11T18:59:45.733344+00:00", "meta": {"OBJECT_NAME": "UK-DMC 2", "OBJECT_ID": "2009-041C", "EPOCH": "2025-12-11T06:53:51.885312", "MEAN_MOTION": 14.75617241, "ECCENTRICITY": 0.00014179, "INCLINATION": 97.8563, "RA_OF_ASC_NODE": 120.2308, "ARG_OF_PERICENTER": 97.4592, "MEAN_ANOMALY": 262.6778, "EPHEMERIS_TYPE": 0, "CLASSIFICATION_TYPE": "U", "NORAD_CAT_ID": 35683, "ELEMENT_SET_NO": 999, "REV_AT_EPOCH": 87885, "BSTAR": 0.0002720771, "MEAN_MOTION_DOT": 1.808e-05, "MEAN_MOTION_DDOT": 0}, "tle": {"line1": "1 35683U 09041C   25345.28740608  .00001808  00000+0  27208-3 0  9991", "line2": "2 35683  97.8563 120.2308 0001417  97.4592 262.6778 14.75617241878852"}}, "geometry": {"type": "Point", "coordinates": [-55.875943366047416, 23.266027969716045]}}, {"type": "Feature", "properties": {"norad_id": 40715, "name": "DMC3-FM1", "group": "dmc", "lat": 7.935937138633908, "lon": 34.09453720822101, "alt_km": 617.1841695786807, "timestamp": "2025-12-11T18:59:45.733355+00:00", "meta": {"OBJECT_NAME": "DMC3-FM1", "OBJECT_ID": "2015-032A", "EPOCH": "2025-12-11T06:54:27.800928", "MEAN_MOTION": 14.8543572, "ECCENTRICITY": 0.00048014, "INCLINATION": 97.669, "RA_OF_ASC_NODE": 212.5331, "ARG_OF_PERICENTER": 327.8825, "MEAN_ANOMALY": 32.2097, "EPHEMERIS_TYPE": 0, "CLASSIFICATION_TYPE": "U", "NORAD_CAT_ID": 40715, "ELEMENT_SET_NO": 999, "REV_AT_EPOCH": 56201, "BSTAR": 0.00011030941, "MEAN_MOTION_DOT": 8.99e-06, "MEAN_MOTION_DDOT": 0}, "tle": {"line1": "1 40715U 15032A   25345.28782177  .00000899  00000+0  11031-3 0  9993", "line2": "2 40715  97.6690 212.5331 0004801 327.8825  32.2097 14.85435720562017"}}, "geometry": {"type": "Point", "coordinates": [34.09453720822101, 7.935937138633908]}}, {"type": "Feature", "properties": {"norad_id": 40716, "name": "DMC3-FM2", "group": "dmc", "lat": 51.002282757348866, "lon": -155.12485437910794, "alt_km": 606.9813755977448, "timestamp": "2025-12-11T18:59:45.733366+00:00", "meta": {"OBJECT_NAME": "DMC3-FM2", "OBJECT_ID": "2015-032B", "EPOCH": "2025-12-11T05:49:51.662784", "MEAN_MOTION": 14.85435003, "ECCENTRICITY": 0.00054827, "INCLINATION": 97.6745, "RA_OF_ASC_NODE": 213.9326, "ARG_OF_PERICENTER": 331.8704, "MEAN_ANOMALY": 28.2214, "EPHEMERIS_TYPE": 0, "CLASSIFICATION_TYPE": "U", "NORAD_CAT_ID": 40716, "ELEMENT_SET_NO": 999, "REV_AT_EPOCH": 56200, "BSTAR": 8.8096435e-05, "MEAN_MOTION_DOT": 7.08e-06, "MEAN_MOTION_DDOT": 0}, "tle": {"line1": "1 40716U 15032B   25345.24295906  .00000708  00000+0  88096-4 0  9994", "line2": "2 40716  97.6745 213.9326 0005482 331.8704  28.2214 14.85435003562004"}}, "geometry": {"type": "Point", "coordinates": [-155.12485437910794, 51.002282757348866]}}, {"type": "Feature", "properties": {"norad_id": 40717, "name": "DMC3-FM3", "group": "dmc", "lat": -62.91980595591049, "lon": -128.60327362497895, "alt_km": 616.75619648262, "timestamp": "2025-12-11T18:59:45.733376+00:00", "meta": {"OBJECT_NAME": "DMC3-FM3", "OBJECT_ID": "2015-032C", "EPOCH": "2025-12-11T06:20:59.038080", "MEAN_MOTION": 14.85426008, "ECCENTRICITY": 0.00047708, "INCLINATION": 97.68, "RA_OF_ASC_NODE": 215.5855, "ARG_OF_PERICENTER": 333.9364, "MEAN_ANOMALY": 26.1611, "EPHEMERIS_TYPE": 0, "CLASSIFICATION_TYPE": "U", "NORAD_CAT_ID": 40717, "ELEMENT_SET_NO": 999, "REV_AT_EPOCH": 56201, "BSTAR": 0.00012569145, "MEAN_MOTION_DOT": 1.031e-05, "MEAN_MOTION_DDOT": 0}, "tle": {"line1": "1 40717U 15032C   25345.26457220  .00001031  00000+0  12569-3 0  9997", "line2": "2 40717  97.6800 215.5855 0004770 333.9364  26.1611 14.85426008562010"}}, "geometry": {"type": "Point", "coordinates": [-128.60327362497895, -62.91980595591049]}}]}